#dP2022  2  5 12  0  0.00000000      96 __u+U ITR00 EXT  IAC
## 2195 561600.00000000   900.00000000 59615 0.5000000000000
+  115   C06C07C08C09C10C11C12C13C14C16C19C20C21C22C23C24C25
+        C26C27C28C29C30C32C33C34C35C36C37C38C39C40C41C42C43
+        C44C45C46E01E02E03E04E05E07E08E09E11E12E13E14E15E18
+        E21E24E25E26E27E30E31E33E36G01G02G03G04G05G06G07G08
+        G09G10G11G12G13G14G15G16G17G18G19G20G21G22G23G24G25
+        G26G27G28G29G30G31G32J01J02J03R01R02R03R04R05R07R08
+        R09R11R12R13R14R15R17R18R19R20R21R22R24  0  0  0  0
++        12 10  9 10  9  9  9  9  8 11  9  7  8  8  9 10  8
++         7  8  9  9  8  7 10  6  8  9  7  9 10 10  7  8 10
++         8  8  7  7  8  8  7  8  9  8  8  9  9  8  8  7  9
++         8  7  8  9  9  7  8  8  8  7  8  6  6  7  8  7  8
++         6  7  8  8  7  7  8  7  8  7  7  6  8  7  8  8  8
++         6  8  8  7  6  6  7 13 11  8  9  9  9  9  8  8  8
++         8  8  9  8  8  7  7  8 10  8  8  8  9  0  0  0  0
%c M  cc GPS ccc cccc cccc cccc cccc ccccc ccccc ccccc ccccc
%c cc cc ccc ccc cccc cccc cccc cccc ccccc ccccc ccccc ccccc
%f  0.0000000  0.000000000  0.00000000000  0.000000000000000
%f  0.0000000  0.000000000  0.00000000000  0.000000000000000
%i    0    0    0    0      0      0      0      0         0
%i    0    0    0    0      0      0      0      0         0
/* IAC                                ULTRA-RAPID PREDICTION
/* S/V CLOCKS ARE ALIGNED TO GNSS TIME                      
/* G:C1WC2W R:C1PC2P E:C1XC5X C:C2IC6I J:C1CC2S             
/* PCV:IGS14_2194 OL/AL:FES2004  NONE     YN ORB:CoN CLK:CoN
*  2022 02 05 18 15  0.00000000
PC06 -17858.666778  36532.651826 -11550.864982     -0.344000
PC07  -2880.390643  35030.666459 -23181.851904    -16.706377
PC08 -10284.975208  19667.085350  35843.139986    113.006844
PC09 -11780.345805  35495.145768 -19618.820036   -497.051695
PC10   3561.788473  37552.179044 -18102.400276    139.867029
PC11   3238.087095  18138.175855  21019.133311   -226.384563
PC12 -11940.246654  23963.589412   7893.455773   -435.947078
PC13  -1992.051914  22395.294024  35800.679698   -125.426563
PC14  11784.411825  25238.602808  -1133.985514    458.473903
PC16 -19089.703701  36400.929625  -9850.967894     74.980131
PC19 -16456.711457 -20027.097035  10380.752201    901.090327
PC20  -6547.645673 -26350.965057  -6481.553887   -817.101669
PC21  -7981.824378  17165.185947  20515.524051   -958.020596
PC22 -17224.853609  -1912.874919  21879.325990   -957.858921
PC23  27620.437855    535.765134   3978.773619   -966.966936
PC24   2131.379509  16503.099533 -22421.496484   -943.781907
PC25  22271.048547  11228.849407 -12551.566652   -783.814793
PC26 -16495.791205  12056.607379 -19004.503923    783.334118
PC27  17537.529447 -21671.042337    975.597905    672.733117
PC28  20798.700447  -7952.962834  16825.775903     29.262847
PC29 -12153.771858 -10310.746535 -22910.387742    511.140844
PC30   3774.340045 -23230.689737 -14977.682478    492.717580
PC32   7863.889629 -17206.919334 -20499.048809   -962.789304
PC33  16530.327111  19994.204555 -10260.997828   -955.810164
PC34  -3017.921739  22929.720958  15628.697022   -475.677026
PC35 -20453.099112   7972.868569 -17255.789799    126.111077
PC36 -21625.142147 -11979.624249  12953.423694   -892.677346
PC37  17834.815536 -11108.320980  18385.703793   -964.858859
PC38 -17170.946683  20382.753549  32662.684980    209.306296
PC39 -20891.429812  36532.323867  -3762.281465     34.742756
PC40  -5628.840736  31974.480168 -26822.089892    241.854954
PC41  17350.684293   2318.162392 -21682.956914   -932.667405
PC42   5809.991616  26263.666928   7450.108410   -930.073053
PC43  11713.732046  11055.431707  22784.921436   -943.567643
PC44 -16913.278771  22189.809684  -1205.890874    555.161724
PC45 -27567.785671   -365.656234  -4226.205473    672.747926
PC46  -3683.312929 -16400.043600  22265.391976   -152.857682
PE01  25760.737833   9228.666742  11301.509357   -573.385740
PE02 -25729.617389  -9077.799108 -11453.651728    278.323273
PE03 -16931.169035  -2118.840339  24183.188671   -524.648636
PE04  14332.244040 -19047.929200 -17542.186598   -958.282193
PE05  -9628.490873 -22435.067379  16735.456631   -211.848225
PE07  -3184.111933  29423.979326    356.737103   -635.975633
PE08 -13995.349280  19484.069572  17333.983946   5860.256947
PE09   2919.300087 -29461.144670   -136.050669   5370.430976
PE11   8149.568486 -18946.061578 -21226.849721   4519.913555
PE12  24839.583405 -15183.856526  -5284.177703   4774.191867
PE13  -8840.173992  18993.601500  20924.386784    426.289112
PE14 -20229.742915   -734.480213 -23643.280923  -1735.367536
PE15 -24879.698023  15191.235496   5174.471060    765.059504
PE18  16855.734173 -14130.204757  14098.445461  -1827.449588
PE21  20665.343207  20230.785821  -6346.159092   -715.444663
PE24  -1978.927946 -19865.659045  21827.298270  -1374.459544
PE25 -20496.927077 -20306.238091   6581.635546   -562.645437
PE26  13325.436595  11188.676662  23955.940558   -771.234453
PE27   3384.988943  20284.306312 -21297.762387   -225.674715
PE30 -16684.104876   7498.824556 -23279.579903   -250.183022
PE31  15772.077184  -8391.688375  23605.492798   -491.764991
PE33  26183.589930  -2425.011036  13591.014892   -459.709126
PE36 -12307.527344 -11607.273651 -24281.539693   -328.160606
PG01  -1845.167691 -14768.104173 -22256.757054    438.945421
PG02 -18744.486670  15566.842113  11379.877488   -650.283928
PG03 -10165.263759 -21317.760149 -12360.490307   -108.241788
PG04   -688.076911 -24420.668385  10323.902810   -191.261764
PG05  -4587.925433  15473.625017  20905.919849    -70.401585
PG06 -25860.922541   5181.629859  -3383.149831    192.347905
PG07 -18303.241960  -8143.620093  18056.159175    308.015523
PG08   5923.325679 -25692.394579    372.676417    -54.986223
PG09  -9468.039294 -16793.879622  18183.634753   -355.382735
PG10  21774.172437   8915.840102 -12465.248191   -312.388835
PG11 -21033.799786  12407.624259  10428.229230    -99.057314
PG12   6234.619233  21603.514016 -14505.433186   -166.574562
PG13 -13200.741398  22030.299840   6281.693915    256.886077
PG14 -21521.264493  -9855.544870 -12120.410258    -80.233453
PG15  -2480.402270  26266.191603   -653.614000    -86.096539
PG16   9451.467298 -11666.500879  21610.233906   -465.550852
PG17 -14687.040086  -1601.993266 -21641.864403    571.162194
PG18  18191.127099   7675.153733  17811.062482    246.401042
PG19 -16560.169289   6616.867292 -19882.478044    115.026800
PG20 -13425.179617   9229.991337  20935.381176    516.835419
PG21   8493.719103 -16688.293827 -17903.016357    157.517155
PG22  16395.509567 -10519.460208 -17572.609360    209.164317
PG23  20708.389982  16562.026453  -2263.072222      4.126498
PG24  -1999.255071  16989.083845 -20521.032646    275.792624
PG25  16847.529430  20283.877898  -4560.369175    281.301092
PG26  18829.053580  -1873.465426  18675.898973    180.688265
PG27  12309.987318 -20739.956007  10469.584064    105.710935
PG28 -18917.489504  -3184.689289 -17748.650223    406.851905
PG29   5712.892267  19457.099574  17080.509262   -476.479124
PG30 -24206.475745  -1864.864895  11119.720898   -511.518499
PG31  26069.118112  -6226.936304  -1062.399051   -163.342741
PG32  15843.249959  -3221.313518 -20914.048430    -62.518119
PJ01 -27544.103939  23529.491694  26554.924202    261.802316
PJ02 -25736.025891  15566.046871 -25021.356891     -1.177053
PJ03 -27337.631754  32003.802938   2359.405766     -0.414305
PR01 -10332.795119   4137.217064  22952.941284      7.074216
PR02  -1735.241413  21698.615032  13394.655320    508.762335
PR03   7177.241998  24243.187952  -3563.317276     51.039510
PR04  11709.376383  13261.664166 -18354.352129    126.469833
PR05   9892.260651  -4986.879741 -22963.992234     87.185144
PR07  -7499.540847 -23956.623711   4418.748220     31.358593
PR08 -11879.465369 -13032.341921  18474.502837    -63.439616
PR09   5761.854625 -10031.213195  22741.758763     37.898127
PR11 -23692.114799  -8749.400558   3618.643555     46.065660
PR12 -21140.570847    651.361172 -14221.350143     17.092019
PR13  -6952.069968   9313.052763 -22727.099948    -17.913210
PR14  12633.801446  12928.108482 -17987.793218     74.014408
PR15  23794.560571   8749.364126  -2827.530187     98.404341
PR17   -628.078143  13774.930159  21464.972092    498.991891
PR18  13014.563971   1493.065512  21894.970258    106.246560
PR19  20144.446017 -10391.770651  11703.397955   -177.100946
PR20  15652.640950 -18249.638913  -8439.107227    -64.390812
PR21   -467.811704 -12917.156592 -21989.673658   -275.711196
PR22 -13702.579820   -660.682512 -21537.426803   -162.797867
PR24 -14697.435381  18780.165294   9063.363295     78.876554
EOF
